[{"OBJECT_NAME":"POLYITAN-1","OBJECT_ID":"2014-033AJ","EPOCH":"2026-03-09T22:27:50.258304","MEAN_MOTION":15.29568085,"ECCENTRICITY":0.00093607,"INCLINATION":98.1053,"RA_OF_ASC_NODE":86.0432,"ARG_OF_PERICENTER":127.248,"MEAN_ANOMALY":232.9614,"EPHEMERIS_TYPE":0,"CLASSIFICATION_TYPE":"U","NORAD_CAT_ID":40042,"ELEMENT_SET_NO":999,"REV_AT_EPOCH":63840,"BSTAR":0.00083772474,"MEAN_MOTION_DOT":0.00024003,"MEAN_MOTION_DDOT":0},{"OBJECT_NAME":"STARLINK-35318","OBJECT_ID":"2025-240A","EPOCH":"2026-03-09T10:02:30.052032","MEAN_MOTION":15.30199953,"ECCENTRICITY":0.00014143,"INCLINATION":53.159,"RA_OF_ASC_NODE":64.3109,"ARG_OF_PERICENTER":85.1595,"MEAN_ANOMALY":274.9567,"EPHEMERIS_TYPE":0,"CLASSIFICATION_TYPE":"U","NORAD_CAT_ID":66146,"ELEMENT_SET_NO":999,"REV_AT_EPOCH":2199,"BSTAR":0.0011580887,"MEAN_MOTION_DOT":0.00034098,"MEAN_MOTION_DDOT":0}]
